{
"type": "FeatureCollection",
"name": "instituciones_educativas_2024_2025",
"crs": { "type": "name", "properties": { "name": "urn:ogc:def:crs:OGC:1.3:CRS84" } },
"features": [
{ "type": "Feature", "properties": { "codigo_amie": "05B00061", "nombre": "CENTRO EDUCATIVO COMUNITARIO INTERCULTURAL BILINGÜE DE EDUCACION BASICA SAN JAVIER", "estudiantes_2024_2025": 1, "docentes_2024_2025": 1, "inicial": 0, "egb": 1, "bachillerato": 0, "fuente_coordenada": null, "confianza_coordenada": "alta", "estado_revision": null, "osm_type": "way", "osm_id": 1029346262, "nombre_osm": "Centro Educativo de Educación San Javier", "oferta_resumida": "EGB", "latitud": -0.8870086, "longitud": -78.91666860892542 }, "geometry": { "type": "Point", "coordinates": [ -78.91666860892542, -0.8870086 ] } },
{ "type": "Feature", "properties": { "codigo_amie": "05B00045", "nombre": "CENTRO EDUCATIVO COMUNITARIO INTERCULTURAL BILINGÜE DE EDUCACION BASICA SERGIO NUÑEZ", "estudiantes_2024_2025": 63, "docentes_2024_2025": 9, "inicial": 0, "egb": 1, "bachillerato": 0, "fuente_coordenada": null, "confianza_coordenada": "alta", "estado_revision": null, "osm_type": "node", "osm_id": 9490090885, "nombre_osm": "Centro Educativo CIB de Educación Básica Sergio Nuñez", "oferta_resumida": "EGB", "latitud": -0.9982328, "longitud": -78.8695005 }, "geometry": { "type": "Point", "coordinates": [ -78.8695005, -0.9982328 ] } },
{ "type": "Feature", "properties": { "codigo_amie": "05B00046", "nombre": "CENTRO EDUCATIVO COMUNITARIO INTERCULTURAL BILINGÜE DE EDUCACION BASICA ATAHUALPA", "estudiantes_2024_2025": 5, "docentes_2024_2025": 1, "inicial": 0, "egb": 1, "bachillerato": 0, "fuente_coordenada": null, "confianza_coordenada": "alta", "estado_revision": null, "osm_type": "way", "osm_id": 1029346253, "nombre_osm": "Centro Educativo CIB de Educación Básica Atahualpa", "oferta_resumida": "EGB", "latitud": -0.95155975, "longitud": -78.86704479498249 }, "geometry": { "type": "Point", "coordinates": [ -78.86704479498249, -0.95155975 ] } },
{ "type": "Feature", "properties": { "codigo_amie": "05B00058", "nombre": "CENTRO EDUCATIVO COMUNITARIO INTERCULTURAL BILINGÜE DE EDUCACION BASICA BENJAMIN CARRION", "estudiantes_2024_2025": 5, "docentes_2024_2025": 1, "inicial": 0, "egb": 1, "bachillerato": 0, "fuente_coordenada": null, "confianza_coordenada": "alta", "estado_revision": null, "osm_type": "way", "osm_id": 1029346265, "nombre_osm": "Centro Educativo de Educación Básica Benjamin Carrion", "oferta_resumida": "EGB", "latitud": -0.8894525, "longitud": -78.945820641854112 }, "geometry": { "type": "Point", "coordinates": [ -78.945820641854112, -0.8894525 ] } },
{ "type": "Feature", "properties": { "codigo_amie": "05B00057", "nombre": "CENTRO EDUCATIVO COMUNITARIO INTERCULTURAL BILINGÜE DE EDUCACION BASICA DOLORES CACUANGO", "estudiantes_2024_2025": 7, "docentes_2024_2025": 2, "inicial": 0, "egb": 1, "bachillerato": 0, "fuente_coordenada": null, "confianza_coordenada": "alta", "estado_revision": null, "osm_type": "way", "osm_id": 1029346258, "nombre_osm": "Centro Educativo de Educación Básica Dolores Cacuango", "oferta_resumida": "EGB", "latitud": -0.92797425, "longitud": -78.919890512159839 }, "geometry": { "type": "Point", "coordinates": [ -78.919890512159839, -0.92797425 ] } },
{ "type": "Feature", "properties": { "codigo_amie": "05B00051", "nombre": "CENTRO EDUCATIVO COMUNITARIO INTERCULTURAL BILINGÜE DE EDUCACION BASICA FERNANDO DAQUILEMA", "estudiantes_2024_2025": 11, "docentes_2024_2025": 1, "inicial": 0, "egb": 1, "bachillerato": 0, "fuente_coordenada": null, "confianza_coordenada": "alta", "estado_revision": null, "osm_type": "node", "osm_id": 9490112923, "nombre_osm": "Centro Educativo de Educación Básica Fernando Daquilema", "oferta_resumida": "EGB", "latitud": -0.913814, "longitud": -78.9341766 }, "geometry": { "type": "Point", "coordinates": [ -78.9341766, -0.913814 ] } },
{ "type": "Feature", "properties": { "codigo_amie": "05B00052", "nombre": "CENTRO EDUCATIVO COMUNITARIO INTERCULTURAL BILINGÜE DE EDUCACION BASICA RAFAEL VINCES", "estudiantes_2024_2025": 14, "docentes_2024_2025": 1, "inicial": 0, "egb": 1, "bachillerato": 0, "fuente_coordenada": null, "confianza_coordenada": "alta", "estado_revision": null, "osm_type": "way", "osm_id": 1029346256, "nombre_osm": "Centro Educativo de Educación Básica Rafael Vinces", "oferta_resumida": "EGB", "latitud": -0.9362625, "longitud": -78.937101916725737 }, "geometry": { "type": "Point", "coordinates": [ -78.937101916725737, -0.9362625 ] } },
{ "type": "Feature", "properties": { "codigo_amie": "05B00060", "nombre": "CENTRO EDUCATIVO COMUNITARIO INTERCULTURAL BILINGÜE DE EDUCACION BASICA NELSON TORRES ARROYO", "estudiantes_2024_2025": 17, "docentes_2024_2025": 2, "inicial": 0, "egb": 1, "bachillerato": 0, "fuente_coordenada": null, "confianza_coordenada": "alta", "estado_revision": null, "osm_type": "way", "osm_id": 1029346264, "nombre_osm": "Centro Educativo de Educación Básica Nelson Torres Arroyo", "oferta_resumida": "EGB", "latitud": -0.89881565, "longitud": -78.958512754568517 }, "geometry": { "type": "Point", "coordinates": [ -78.958512754568517, -0.89881565 ] } },
{ "type": "Feature", "properties": { "codigo_amie": "05H00584", "nombre": "ESCUELA DE EDUCACION BASICA RAFAEL MARIA QUINTANA ESPINOSA", "estudiantes_2024_2025": 54, "docentes_2024_2025": 9, "inicial": 0, "egb": 1, "bachillerato": 0, "fuente_coordenada": null, "confianza_coordenada": "alta", "estado_revision": null, "osm_type": "way", "osm_id": 1029346255, "nombre_osm": "Escuela De Educación Básica Rafael Maria Quintana Espinoza", "oferta_resumida": "EGB", "latitud": -0.9794253, "longitud": -78.885427391836544 }, "geometry": { "type": "Point", "coordinates": [ -78.885427391836544, -0.9794253 ] } },
{ "type": "Feature", "properties": { "codigo_amie": "05H00576", "nombre": "ESCUELA DE EDUCACION BASICA BEATRIZ JIMENEZ BAQUERO", "estudiantes_2024_2025": 5, "docentes_2024_2025": 1, "inicial": 0, "egb": 1, "bachillerato": 0, "fuente_coordenada": null, "confianza_coordenada": "alta", "estado_revision": null, "osm_type": "node", "osm_id": 9490090871, "nombre_osm": "Escuela De Educación Básica Beatriz Jimenez Baquero", "oferta_resumida": "EGB", "latitud": -0.9472836, "longitud": -78.8555744 }, "geometry": { "type": "Point", "coordinates": [ -78.8555744, -0.9472836 ] } },
{ "type": "Feature", "properties": { "codigo_amie": "05H00585", "nombre": "ESCUELA DE EDUCACION BASICA CABO MINACHO", "estudiantes_2024_2025": 5, "docentes_2024_2025": 2, "inicial": 0, "egb": 1, "bachillerato": 0, "fuente_coordenada": null, "confianza_coordenada": "alta", "estado_revision": null, "osm_type": "way", "osm_id": 1029346254, "nombre_osm": "Centro Educativo de Educación Básica Cabo Minacho", "oferta_resumida": "EGB", "latitud": -0.96973855, "longitud": -78.8396001929612 }, "geometry": { "type": "Point", "coordinates": [ -78.8396001929612, -0.96973855 ] } },
{ "type": "Feature", "properties": { "codigo_amie": "05H00586", "nombre": "ESCUELA DE EDUCACION BASICA GUILLERMO ARROYO GRANDES", "estudiantes_2024_2025": 5, "docentes_2024_2025": 1, "inicial": 0, "egb": 1, "bachillerato": 0, "fuente_coordenada": null, "confianza_coordenada": "alta", "estado_revision": null, "osm_type": "node", "osm_id": 9490112930, "nombre_osm": "Escuela De Educación Básica Guillermo Arroyo Grandes", "oferta_resumida": "EGB", "latitud": -0.8850589, "longitud": -78.8952416 }, "geometry": { "type": "Point", "coordinates": [ -78.8952416, -0.8850589 ] } },
{ "type": "Feature", "properties": { "codigo_amie": "05H00587", "nombre": "ESCUELA DE EDUCACION BASICA AURELIO DAVILA CAJAS", "estudiantes_2024_2025": 27, "docentes_2024_2025": 3, "inicial": 0, "egb": 1, "bachillerato": 0, "fuente_coordenada": null, "confianza_coordenada": "alta", "estado_revision": null, "osm_type": "way", "osm_id": 1029346261, "nombre_osm": "Escuela De Educación Básica Aurelio Davila Cajas", "oferta_resumida": "EGB", "latitud": -0.89460775, "longitud": -78.9176770190398 }, "geometry": { "type": "Point", "coordinates": [ -78.9176770190398, -0.89460775 ] } },
{ "type": "Feature", "properties": { "codigo_amie": "05H00582", "nombre": "ESCUELA DE EDUCACION BASICA ZUMBAHUA", "estudiantes_2024_2025": 21, "docentes_2024_2025": 2, "inicial": 0, "egb": 1, "bachillerato": 0, "fuente_coordenada": null, "confianza_coordenada": "alta", "estado_revision": null, "osm_type": "way", "osm_id": 1029346257, "nombre_osm": "Escuela De Educación Básica Zumbahua", "oferta_resumida": "EGB", "latitud": -0.9261184, "longitud": -78.942392780828584 }, "geometry": { "type": "Point", "coordinates": [ -78.942392780828584, -0.9261184 ] } },
{ "type": "Feature", "properties": { "codigo_amie": "05H00574", "nombre": "UNIDAD EDUCATIVA DEL MILENIO CACIQUE TUMBALA", "estudiantes_2024_2025": 567, "docentes_2024_2025": 43, "inicial": 1, "egb": 1, "bachillerato": 1, "fuente_coordenada": null, "confianza_coordenada": "alta", "estado_revision": null, "osm_type": "way", "osm_id": 361626424, "nombre_osm": "Unidad Educativa del Milenio Cacique Tumbala", "oferta_resumida": "Inicial + EGB + Bachillerato", "latitud": -0.9630533, "longitud": -78.89796292978329 }, "geometry": { "type": "Point", "coordinates": [ -78.89796292978329, -0.9630533 ] } },
{ "type": "Feature", "properties": { "codigo_amie": "05B00064", "nombre": "UNIDAD EDUCATIVA COMUNITARIA INTERCULTURAL BILINGÜE DON BOSCO", "estudiantes_2024_2025": 180, "docentes_2024_2025": 28, "inicial": 1, "egb": 1, "bachillerato": 1, "fuente_coordenada": null, "confianza_coordenada": "alta", "estado_revision": null, "osm_type": "way", "osm_id": 361626426, "nombre_osm": "Instituto Tecnico Don Bosco", "oferta_resumida": "Inicial + EGB + Bachillerato", "latitud": -0.9610675, "longitud": -78.897179543848836 }, "geometry": { "type": "Point", "coordinates": [ -78.897179543848836, -0.9610675 ] } },
{ "type": "Feature", "properties": { "codigo_amie": "05B00047", "nombre": "UNIDAD EDUCATIVA COMUNITARIA INTERCULTURAL BILINGÜE 24 DE OCTUBRE", "estudiantes_2024_2025": 80, "docentes_2024_2025": 16, "inicial": 1, "egb": 1, "bachillerato": 1, "fuente_coordenada": null, "confianza_coordenada": "alta", "estado_revision": null, "osm_type": "way", "osm_id": 1029346259, "nombre_osm": "Colegio Bilingue 24 de Octubre", "oferta_resumida": "Inicial + EGB + Bachillerato", "latitud": -0.9202813, "longitud": -78.917190773113205 }, "geometry": { "type": "Point", "coordinates": [ -78.917190773113205, -0.9202813 ] } },
{ "type": "Feature", "properties": { "codigo_amie": "05B00050", "nombre": "UNIDAD EDUCATIVA COMUNITARIA INTERCULTURAL BILINGÜE SARAUGSHA", "estudiantes_2024_2025": 79, "docentes_2024_2025": 15, "inicial": 1, "egb": 1, "bachillerato": 1, "fuente_coordenada": null, "confianza_coordenada": "alta", "estado_revision": null, "osm_type": "node", "osm_id": 9490090893, "nombre_osm": "Centro Educativo de Educación Básica Saraugsha", "oferta_resumida": "Inicial + EGB + Bachillerato", "latitud": -0.9461867, "longitud": -78.9124668 }, "geometry": { "type": "Point", "coordinates": [ -78.9124668, -0.9461867 ] } },
{ "type": "Feature", "properties": { "codigo_amie": "05B00114", "nombre": "UNIDAD EDUCATIVA COMUNITARIA INTERCULTURAL BILINGÜE JATARI UNANCHA", "estudiantes_2024_2025": 1156, "docentes_2024_2025": 68, "inicial": 0, "egb": 1, "bachillerato": 1, "fuente_coordenada": null, "confianza_coordenada": "media", "estado_revision": null, "osm_type": "way", "osm_id": 361626422, "nombre_osm": "Colegio Jatary Amancha", "oferta_resumida": "EGB + Bachillerato", "latitud": -0.9606171, "longitud": -78.897261617168908 }, "geometry": { "type": "Point", "coordinates": [ -78.897261617168908, -0.9606171 ] } }
]
}
